{"type":"Feature","properties":{"id":"cela","name":"Celá Svatá cesta","source":"OSRM (FOSSGIS) nad daty © OpenStreetMap"},"geometry":{"type":"LineString","coordinates":[[14.43701,50.09079],[14.43707,50.09078],[14.43715,50.09078],[14.43721,50.09079],[14.43727,50.09081],[14.43741,50.09085],[14.43744,50.09085],[14.43767,50.09092],[14.43778,50.09095],[14.43781,50.09095],[14.43792,50.09099],[14.43795,50.09102],[14.43798,50.09102],[14.43802,50.09102],[14.43806,50.09103],[14.43808,50.09104],[14.43809,50.09106],[14.43809,50.09109],[14.43809,50.09111],[14.43808,50.09115],[14.4381,50.09116],[14.4382,50.09118],[14.4383,50.0912],[14.43832,50.0912],[14.43845,50.09117],[14.43938,50.09142],[14.44,50.09157],[14.44181,50.092],[14.44185,50.09202],[14.44187,50.09202],[14.44193,50.09204],[14.44199,50.09205],[14.44212,50.09208],[14.44219,50.09209],[14.44227,50.0921],[14.44231,50.0921],[14.44393,50.09245],[14.44431,50.09254],[14.44433,50.09255],[14.44438,50.09257],[14.44445,50.09259],[14.4445,50.0926],[14.44459,50.09261],[14.44463,50.0926],[14.44465,50.0926],[14.44472,50.09263],[14.44523,50.09275],[14.44571,50.09286],[14.44617,50.09295],[14.4463,50.09298],[14.44629,50.093],[14.44628,50.09302],[14.4463,50.09302],[14.44638,50.09304],[14.44648,50.09307],[14.44654,50.09308],[14.44655,50.09306],[14.44656,50.09304],[14.44834,50.09344],[14.44962,50.09373],[14.45107,50.09405],[14.45122,50.09408],[14.45128,50.0941],[14.45139,50.09413],[14.45152,50.09415],[14.45157,50.09416],[14.45196,50.09424],[14.45244,50.09436],[14.45282,50.09444],[14.45279,50.09449],[14.45346,50.09463],[14.45348,50.0946],[14.45358,50.09462],[14.45455,50.09483],[14.4546,50.09486],[14.45472,50.09488],[14.45488,50.09492],[14.45492,50.09492],[14.45496,50.09493],[14.45579,50.09511],[14.45585,50.09511],[14.4565,50.09526],[14.45703,50.09537],[14.45715,50.0954],[14.45729,50.09543],[14.45727,50.09547],[14.45811,50.09565],[14.45812,50.09563],[14.45823,50.09566],[14.45829,50.09567],[14.45939,50.09594],[14.45961,50.09599],[14.45983,50.09606],[14.45993,50.09609],[14.46004,50.09613],[14.46021,50.09619],[14.46032,50.09623],[14.46048,50.09629],[14.46073,50.09638],[14.46086,50.09642],[14.46146,50.09664],[14.46162,50.09669],[14.46181,50.09676],[14.46188,50.09679],[14.46194,50.09682],[14.46196,50.09684],[14.46197,50.09687],[14.46197,50.09689],[14.46194,50.09698],[14.46191,50.09705],[14.46188,50.09708],[14.46195,50.0971],[14.46206,50.09712],[14.46212,50.09714],[14.46213,50.09716],[14.46215,50.09718],[14.46237,50.09726],[14.46239,50.09724],[14.46262,50.09729],[14.46268,50.0973],[14.4629,50.09734],[14.46295,50.09735],[14.46314,50.09738],[14.46319,50.09739],[14.46332,50.09742],[14.46339,50.09743],[14.46346,50.09744],[14.46352,50.09745],[14.4636,50.09747],[14.46365,50.09749],[14.46368,50.09745],[14.46395,50.09755],[14.46427,50.09766],[14.465,50.09793],[14.46503,50.09794],[14.46519,50.098],[14.46517,50.09802],[14.46524,50.09805],[14.46533,50.09808],[14.46541,50.0981],[14.4657,50.09821],[14.4658,50.09824],[14.4659,50.09828],[14.46593,50.09829],[14.466,50.09832],[14.4661,50.09835],[14.4662,50.09839],[14.4663,50.09842],[14.4664,50.09846],[14.46657,50.09852],[14.46659,50.09853],[14.46669,50.09857],[14.46689,50.09864],[14.467,50.09868],[14.46715,50.09874],[14.46721,50.09876],[14.46729,50.09879],[14.46734,50.09881],[14.46738,50.09883],[14.46743,50.09884],[14.46751,50.09887],[14.46753,50.09884],[14.46756,50.09881],[14.46759,50.09878],[14.46761,50.09876],[14.46766,50.09871],[14.46774,50.09875],[14.46835,50.09897],[14.46843,50.099],[14.46892,50.09918],[14.46907,50.09922],[14.46939,50.09925],[14.46939,50.09927],[14.4694,50.09929],[14.46942,50.09934],[14.46944,50.09937],[14.46969,50.09944],[14.46973,50.09944],[14.46977,50.09945],[14.46981,50.09945],[14.46983,50.09948],[14.46989,50.09951],[14.47109,50.10005],[14.47182,50.10039],[14.47281,50.10097],[14.4733,50.10127],[14.47342,50.10133],[14.47347,50.10136],[14.47348,50.10136],[14.47356,50.1014],[14.47363,50.10144],[14.47367,50.10148],[14.4741,50.10164],[14.47467,50.10184],[14.47481,50.10188],[14.47491,50.10192],[14.47496,50.10193],[14.47501,50.10195],[14.47533,50.10207],[14.47641,50.10243],[14.47695,50.10261],[14.47696,50.10261],[14.47702,50.10263],[14.47708,50.10265],[14.47716,50.10267],[14.47718,50.10268],[14.47802,50.10296],[14.47801,50.10298],[14.47799,50.10301],[14.47796,50.10304],[14.47794,50.10306],[14.47792,50.10309],[14.4779,50.10311],[14.47789,50.10312],[14.47793,50.10314],[14.47794,50.10314],[14.47794,50.10316],[14.47792,50.10317],[14.47794,50.10318],[14.478,50.10319],[14.47806,50.10321],[14.47808,50.10323],[14.47817,50.10326],[14.47921,50.1036],[14.47929,50.10363],[14.47942,50.10367],[14.47944,50.10368],[14.47947,50.10369],[14.47954,50.10371],[14.47955,50.10371],[14.47956,50.10372],[14.47963,50.10374],[14.47964,50.10376],[14.47965,50.10377],[14.47971,50.10378],[14.48072,50.10412],[14.48074,50.10417],[14.48049,50.10409],[14.48074,50.10417],[14.48093,50.10423],[14.48101,50.10426],[14.48177,50.10453],[14.48185,50.10455],[14.48194,50.10455],[14.48203,50.10456],[14.48208,50.10458],[14.48218,50.10461],[14.48224,50.10466],[14.48232,50.10472],[14.48235,50.10471],[14.48239,50.10471],[14.48242,50.10471],[14.48245,50.10472],[14.48248,50.10473],[14.4825,50.10473],[14.48253,50.10471],[14.48255,50.10468],[14.48282,50.10477],[14.48284,50.10477],[14.48325,50.10491],[14.48364,50.10504],[14.48384,50.10511],[14.48386,50.10509],[14.48387,50.10506],[14.4839,50.10503],[14.48392,50.105],[14.48394,50.105],[14.48396,50.10501],[14.48399,50.105],[14.48402,50.10502],[14.48409,50.10504],[14.48417,50.10506],[14.48419,50.10508],[14.48422,50.10509],[14.4852,50.10544],[14.48527,50.10547],[14.48531,50.10547],[14.48539,50.1055],[14.48547,50.10553],[14.48635,50.10584],[14.48645,50.10587],[14.48701,50.10606],[14.48709,50.10609],[14.48718,50.10612],[14.48734,50.10617],[14.48784,50.10635],[14.48831,50.10651],[14.48833,50.10652],[14.48841,50.10654],[14.48849,50.10658],[14.48855,50.10661],[14.48884,50.10671],[14.49019,50.10718],[14.49027,50.10719],[14.49036,50.10723],[14.49044,50.10726],[14.4909,50.10742],[14.49168,50.10769],[14.49177,50.10772],[14.49184,50.10773],[14.49191,50.10777],[14.49299,50.10815],[14.49304,50.10816],[14.4931,50.10817],[14.49331,50.10825],[14.49336,50.10826],[14.49426,50.10858],[14.49493,50.10881],[14.49501,50.10884],[14.4955,50.10901],[14.49586,50.10914],[14.49599,50.10918],[14.49616,50.10923],[14.49646,50.10933],[14.49655,50.10936],[14.49665,50.10932],[14.49674,50.10935],[14.4968,50.10938],[14.49686,50.10941],[14.49682,50.10946],[14.49789,50.10984],[14.49821,50.10995],[14.49836,50.10999],[14.49848,50.11003],[14.4985,50.11003],[14.4987,50.11009],[14.49874,50.1101],[14.49896,50.11015],[14.49893,50.11019],[14.49892,50.11021],[14.49892,50.11022],[14.4989,50.11025],[14.49889,50.11027],[14.49887,50.1103],[14.49885,50.11033],[14.49892,50.11036],[14.49959,50.11052],[14.49981,50.11057],[14.49986,50.11058],[14.49993,50.1106],[14.49999,50.11061],[14.50006,50.11063],[14.50015,50.11065],[14.50086,50.11082],[14.50101,50.11085],[14.50108,50.11087],[14.50111,50.11086],[14.50114,50.11086],[14.50125,50.11089],[14.5014,50.11095],[14.50186,50.11116],[14.50208,50.11126],[14.50211,50.11131],[14.50242,50.11143],[14.50253,50.11147],[14.50271,50.11153],[14.50278,50.11154],[14.5028,50.11155],[14.50278,50.11154],[14.50271,50.11153],[14.50263,50.11158],[14.50262,50.11228],[14.5026,50.11234],[14.50259,50.11253],[14.5026,50.11255],[14.50263,50.11257],[14.50267,50.11258],[14.50267,50.11267],[14.50268,50.11275],[14.50272,50.11275],[14.50339,50.11273],[14.50355,50.11273],[14.50371,50.11273],[14.50422,50.11274],[14.50426,50.11275],[14.50429,50.11276],[14.50437,50.11275],[14.50446,50.11275],[14.50457,50.11274],[14.50478,50.11274],[14.50507,50.11278],[14.50568,50.11283],[14.50574,50.11283],[14.50601,50.11285],[14.50633,50.11289],[14.50671,50.11296],[14.50703,50.11304],[14.50709,50.11305],[14.50713,50.11306],[14.5072,50.11308],[14.50726,50.11308],[14.5076,50.11318],[14.50767,50.11314],[14.50778,50.11317],[14.50852,50.11339],[14.50872,50.11344],[14.50895,50.11349],[14.50893,50.11353],[14.50897,50.11356],[14.50943,50.11372],[14.5093,50.11388],[14.50919,50.11403],[14.50906,50.11421],[14.50898,50.11424],[14.50882,50.11421],[14.50898,50.11424],[14.50911,50.11432],[14.50933,50.11451],[14.50962,50.11475],[14.50979,50.1149],[14.50988,50.11497],[14.50998,50.11505],[14.51021,50.11524],[14.51011,50.11525],[14.51003,50.11527],[14.50983,50.11528],[14.50956,50.11537],[14.50949,50.11538],[14.50895,50.11536],[14.50894,50.11554],[14.50894,50.1156],[14.50893,50.11564],[14.50831,50.11563],[14.5081,50.11563],[14.50817,50.11626],[14.50817,50.11661],[14.50817,50.11677],[14.50815,50.11693],[14.5081,50.11714],[14.50806,50.11713],[14.50805,50.11714],[14.50809,50.11726],[14.50813,50.11738],[14.50817,50.11748],[14.50818,50.11751],[14.5082,50.11757],[14.50823,50.11765],[14.50851,50.11846],[14.50857,50.1185],[14.50864,50.11852],[14.50876,50.11853],[14.50882,50.11853],[14.50887,50.1185],[14.50889,50.11849],[14.50896,50.11853],[14.509,50.11856],[14.50912,50.11863],[14.50958,50.11862],[14.50976,50.11862],[14.5106,50.11861],[14.51181,50.1186],[14.5123,50.11859],[14.51297,50.11858],[14.51346,50.11857],[14.51469,50.11856],[14.51593,50.11855],[14.51592,50.1186],[14.51594,50.11865],[14.5166,50.11867],[14.51697,50.11868],[14.51703,50.11868],[14.51709,50.11869],[14.51715,50.11871],[14.51721,50.11874],[14.51722,50.11873],[14.51726,50.11872],[14.5173,50.11871],[14.51734,50.11869],[14.51738,50.1187],[14.51742,50.11871],[14.51746,50.11872],[14.51747,50.11872],[14.51749,50.11873],[14.5175,50.11872],[14.51751,50.11872],[14.51752,50.11873],[14.51774,50.11878],[14.51775,50.11879],[14.51776,50.11879],[14.51777,50.11879],[14.51778,50.1188],[14.51781,50.1188],[14.51788,50.11882],[14.51799,50.11888],[14.518,50.11891],[14.51801,50.11894],[14.51801,50.11895],[14.51806,50.11895],[14.51809,50.11895],[14.51812,50.11896],[14.51817,50.11899],[14.51903,50.11933],[14.51983,50.11967],[14.51992,50.11975],[14.52008,50.11982],[14.52018,50.11987],[14.51797,50.12195],[14.51759,50.1223],[14.51779,50.12233],[14.51839,50.12265],[14.51886,50.12287],[14.51887,50.12288],[14.51981,50.12318],[14.52243,50.1239],[14.52381,50.12443],[14.52463,50.12476],[14.52456,50.12484],[14.52463,50.12476],[14.52474,50.12481],[14.52513,50.12499],[14.52551,50.12519],[14.5257,50.12531],[14.52587,50.12544],[14.52617,50.12575],[14.52628,50.12583],[14.52644,50.1259],[14.52665,50.12596],[14.52715,50.12608],[14.52755,50.12615],[14.52797,50.12621],[14.52828,50.12624],[14.52878,50.12626],[14.52894,50.12628],[14.52904,50.12629],[14.52929,50.12633],[14.52931,50.12633],[14.52959,50.12637],[14.52995,50.12642],[14.52998,50.12642],[14.53089,50.12548],[14.53179,50.12454],[14.53187,50.12457],[14.53196,50.12461],[14.53229,50.12475],[14.53261,50.12487],[14.53272,50.1249],[14.53282,50.12495],[14.53505,50.12584],[14.53569,50.12609],[14.53626,50.12631],[14.53634,50.12633],[14.5364,50.12635],[14.53638,50.12638],[14.53633,50.12643],[14.536,50.12678],[14.53608,50.12683],[14.53611,50.1268],[14.53633,50.12689],[14.53611,50.1268],[14.53608,50.12683],[14.536,50.12678],[14.53633,50.12643],[14.53638,50.12638],[14.5364,50.12635],[14.53646,50.12638],[14.53653,50.12642],[14.53854,50.12722],[14.54061,50.12805],[14.54067,50.12807],[14.54078,50.12808],[14.54088,50.12808],[14.54093,50.12809],[14.54096,50.1281],[14.54101,50.12812],[14.54104,50.12815],[14.54111,50.12824],[14.54114,50.12827],[14.54142,50.12837],[14.54149,50.12838],[14.54146,50.12841],[14.54121,50.12867],[14.54096,50.12895],[14.54037,50.12948],[14.53977,50.13],[14.53973,50.13004],[14.53971,50.13007],[14.5397,50.13012],[14.53944,50.13036],[14.53923,50.13052],[14.53919,50.13055],[14.53915,50.13057],[14.53913,50.13058],[14.53906,50.13059],[14.53891,50.1304],[14.53888,50.13036],[14.53891,50.1304],[14.53906,50.13059],[14.53913,50.13058],[14.53915,50.13057],[14.53919,50.13055],[14.53923,50.13052],[14.53944,50.13036],[14.5397,50.13012],[14.53971,50.13007],[14.53973,50.13004],[14.53977,50.13],[14.54037,50.12948],[14.54096,50.12895],[14.54121,50.12867],[14.54146,50.12841],[14.54163,50.12848],[14.54179,50.12854],[14.54185,50.12853],[14.54193,50.12855],[14.54195,50.12856],[14.54205,50.12846],[14.54209,50.12847],[14.5421,50.12848],[14.54212,50.12849],[14.54215,50.1285],[14.54219,50.12852],[14.54363,50.12911],[14.54404,50.12929],[14.54415,50.1292],[14.54436,50.12929],[14.54502,50.12955],[14.54517,50.12962],[14.54529,50.12971],[14.54589,50.12995],[14.54604,50.13001],[14.54654,50.1302],[14.54661,50.13021],[14.54667,50.13021],[14.54664,50.13026],[14.54662,50.1303],[14.54676,50.13035],[14.54682,50.13039],[14.54686,50.13043],[14.54687,50.1305],[14.54701,50.13069],[14.54769,50.13153],[14.54795,50.1319],[14.54801,50.13201],[14.54806,50.132],[14.54813,50.13199],[14.54817,50.13203],[14.5482,50.13208],[14.54822,50.13214],[14.54823,50.13217],[14.5483,50.13232],[14.54831,50.13235],[14.54832,50.13237],[14.54836,50.13249],[14.54834,50.13251],[14.5485,50.1331],[14.54857,50.1333],[14.54855,50.1333],[14.5485,50.13331],[14.54844,50.13332],[14.54833,50.13336],[14.54844,50.13332],[14.5485,50.13331],[14.54855,50.1333],[14.54857,50.1333],[14.54866,50.13325],[14.5488,50.13324],[14.54925,50.1332],[14.54939,50.13317],[14.54954,50.13315],[14.54975,50.13312],[14.55008,50.13297],[14.55011,50.13295],[14.55084,50.13295],[14.55085,50.13296],[14.55088,50.13296],[14.5509,50.13299],[14.55092,50.13299],[14.55098,50.13299],[14.55104,50.13299],[14.55105,50.13313],[14.55121,50.13313],[14.55125,50.1332],[14.55129,50.13326],[14.55135,50.13334],[14.55141,50.13341],[14.55144,50.13344],[14.55145,50.13347],[14.55149,50.13348],[14.55155,50.13349],[14.5516,50.1335],[14.55165,50.13351],[14.5517,50.13351],[14.55176,50.13351],[14.55183,50.1335],[14.55189,50.1335],[14.55195,50.13349],[14.55204,50.13347],[14.55211,50.13345],[14.55217,50.13344],[14.55224,50.13344],[14.55231,50.13343],[14.55239,50.13343],[14.55269,50.13341],[14.55326,50.13339],[14.55415,50.13336],[14.5548,50.13339],[14.55484,50.13353],[14.5548,50.13339],[14.55492,50.13339],[14.55502,50.13337],[14.55535,50.13332],[14.55555,50.13328],[14.55563,50.13325],[14.55584,50.13324],[14.55626,50.13325],[14.55688,50.13323],[14.5574,50.13322],[14.55785,50.13319],[14.55791,50.13319],[14.55922,50.1331],[14.55946,50.13311],[14.56016,50.13306],[14.56053,50.13303],[14.56086,50.13301],[14.56093,50.13302],[14.5612,50.13313],[14.56125,50.13315],[14.5613,50.13317],[14.56157,50.13333],[14.56342,50.13424],[14.5668,50.13589],[14.56724,50.13611],[14.5682,50.13658],[14.57179,50.13833],[14.57241,50.13863],[14.57317,50.139],[14.57325,50.13893],[14.57329,50.13889],[14.57333,50.13886],[14.57336,50.13883],[14.57342,50.13877],[14.5755,50.13984],[14.57559,50.13992],[14.57566,50.13996],[14.57576,50.14],[14.57588,50.14007],[14.57643,50.14033],[14.57637,50.14039],[14.57632,50.14044],[14.57716,50.14085],[14.57731,50.14095],[14.57744,50.14102],[14.57746,50.14104],[14.57749,50.14109],[14.57755,50.14122],[14.5776,50.14143],[14.57761,50.14147],[14.57754,50.14148],[14.57714,50.14152],[14.57665,50.14157],[14.57649,50.14157],[14.57665,50.14157],[14.57714,50.14152],[14.57754,50.14148],[14.57761,50.14147],[14.57772,50.14146],[14.57773,50.14154],[14.57776,50.14167],[14.57782,50.14199],[14.57787,50.1421],[14.57794,50.1422],[14.57889,50.14326],[14.57898,50.14338],[14.57906,50.14347],[14.57945,50.14388],[14.57953,50.14396],[14.57967,50.14411],[14.57964,50.14412],[14.57962,50.14414],[14.57961,50.14417],[14.57961,50.14419],[14.57962,50.14421],[14.57954,50.14426],[14.57958,50.1443],[14.57963,50.14429],[14.57968,50.14429],[14.57973,50.14431],[14.57988,50.14445],[14.5802,50.14475],[14.58024,50.14478],[14.58027,50.1448],[14.5804,50.14489],[14.5807,50.14515],[14.58085,50.14525],[14.58173,50.14581],[14.58207,50.14602],[14.5827,50.14643],[14.5835,50.14695],[14.58405,50.14731],[14.58427,50.14746],[14.58435,50.1474],[14.5844,50.14737],[14.58443,50.14739],[14.58447,50.14739],[14.58451,50.14739],[14.58452,50.14739],[14.58456,50.14741],[14.58513,50.14707],[14.58456,50.14741],[14.58482,50.14758],[14.58534,50.14792],[14.58585,50.14826],[14.58616,50.14847],[14.58638,50.14861],[14.58672,50.14883],[14.5869,50.14896],[14.58752,50.14935],[14.58847,50.14998],[14.58909,50.15038],[14.58969,50.15078],[14.58994,50.15094],[14.59097,50.15043],[14.59178,50.15003],[14.59183,50.15001],[14.59193,50.14995],[14.59246,50.15037],[14.59307,50.15084],[14.59348,50.15118],[14.59364,50.15129],[14.59383,50.15142],[14.59407,50.1516],[14.5943,50.15177],[14.59407,50.1516],[14.59383,50.15142],[14.59364,50.15129],[14.59348,50.15118],[14.59307,50.15084],[14.59246,50.15037],[14.59193,50.14995],[14.59183,50.15001],[14.59178,50.15003],[14.59097,50.15043],[14.58994,50.15094],[14.59138,50.15187],[14.59153,50.15197],[14.59145,50.15202],[14.59149,50.15204],[14.5916,50.15212],[14.59236,50.15261],[14.59269,50.15282],[14.59336,50.15326],[14.59372,50.15349],[14.59387,50.15359],[14.59418,50.1538],[14.5942,50.1538],[14.59436,50.15391],[14.5946,50.15387],[14.59463,50.15393],[14.59686,50.15541],[14.59693,50.15545],[14.59697,50.15547],[14.59696,50.15549],[14.59696,50.15551],[14.59696,50.15554],[14.59698,50.15557],[14.59709,50.15564],[14.59705,50.15567],[14.597,50.1557],[14.59697,50.15572],[14.5985,50.15675],[14.59862,50.15687],[14.59861,50.15691],[14.59861,50.15694],[14.59862,50.15697],[14.59866,50.157],[14.59871,50.15701],[14.59875,50.15701],[14.5989,50.15698],[14.59903,50.15698],[14.59908,50.15701],[14.59959,50.15728],[14.60098,50.15794],[14.60134,50.15802],[14.60161,50.15804],[14.60237,50.15801],[14.60256,50.158],[14.60341,50.15796],[14.6038,50.15794],[14.60491,50.15789],[14.60591,50.15784],[14.60634,50.15783],[14.60684,50.15787],[14.60737,50.15796],[14.60786,50.1581],[14.60808,50.15818],[14.60898,50.15853],[14.61007,50.15898],[14.61112,50.15944],[14.61253,50.16004],[14.61334,50.1604],[14.62446,50.16523],[14.62438,50.16529],[14.62434,50.16533],[14.6244,50.16536],[14.62499,50.16559],[14.62588,50.16588],[14.62728,50.16635],[14.6274,50.16639],[14.62817,50.16663],[14.62838,50.16672],[14.62841,50.16674],[14.62898,50.167],[14.62916,50.16709],[14.62935,50.16719],[14.62981,50.16743],[14.62983,50.16752],[14.62988,50.16767],[14.63006,50.1682],[14.6302,50.1683],[14.63031,50.16834],[14.63093,50.16851],[14.63101,50.16851],[14.63119,50.16855],[14.6312,50.16857],[14.63117,50.16861],[14.63125,50.16863],[14.63137,50.16864],[14.63146,50.16864],[14.63182,50.16913],[14.63199,50.16934],[14.63214,50.16949],[14.63231,50.16961],[14.63248,50.16971],[14.63275,50.16983],[14.6331,50.16996],[14.63361,50.17013],[14.63425,50.17032],[14.63818,50.17138],[14.63975,50.1718],[14.6399,50.17184],[14.64319,50.17278],[14.64363,50.17289],[14.64491,50.17319],[14.64551,50.17333],[14.6461,50.1735],[14.6468,50.17373],[14.64672,50.17384],[14.64679,50.17387],[14.6471,50.17397],[14.64743,50.17408],[14.64747,50.17404],[14.64787,50.17417],[14.64804,50.17422],[14.64832,50.17433],[14.64848,50.17439],[14.64856,50.17442],[14.64912,50.17462],[14.64936,50.17471],[14.64958,50.17482],[14.64971,50.17489],[14.64982,50.17496],[14.64995,50.17506],[14.65,50.17509],[14.65006,50.17516],[14.65009,50.17517],[14.65011,50.17518],[14.65062,50.17558],[14.65067,50.17561],[14.65071,50.17564],[14.65079,50.17571],[14.6509,50.1758],[14.65102,50.1759],[14.65117,50.17602],[14.65124,50.17608],[14.65131,50.17612],[14.65164,50.17639],[14.6519,50.17659],[14.65224,50.17686],[14.65255,50.1771],[14.65269,50.17721],[14.65283,50.17732],[14.65286,50.17735],[14.6529,50.17738],[14.65291,50.17739],[14.65292,50.17742],[14.65292,50.17744],[14.65291,50.17748],[14.6529,50.17751],[14.6529,50.17754],[14.6529,50.17756],[14.65291,50.17759],[14.65291,50.17761],[14.65291,50.17764],[14.65289,50.17768],[14.65295,50.17771],[14.653,50.17773],[14.65305,50.17771],[14.6531,50.1777],[14.65317,50.1777],[14.65326,50.1777],[14.65331,50.1777],[14.65336,50.17771],[14.65345,50.17778],[14.65357,50.17787],[14.65359,50.17789],[14.65354,50.17799],[14.65354,50.178],[14.65354,50.17802],[14.65354,50.17803],[14.65356,50.17805],[14.65365,50.17813],[14.65378,50.17823],[14.65403,50.17843],[14.65405,50.17845],[14.65442,50.17877],[14.65446,50.17881],[14.65471,50.17901],[14.65521,50.17941],[14.65524,50.17943],[14.65526,50.17943],[14.65528,50.17943],[14.6553,50.17944],[14.65532,50.17946],[14.65536,50.17951],[14.6554,50.17956],[14.65541,50.17958],[14.65543,50.17961],[14.65555,50.17977],[14.65565,50.17994],[14.65583,50.18027],[14.65584,50.18028],[14.65584,50.1803],[14.65583,50.18032],[14.65583,50.18033],[14.65586,50.18038],[14.6562,50.18096],[14.65624,50.18104],[14.65635,50.18121],[14.65641,50.18125],[14.65649,50.1814],[14.65648,50.18146],[14.65668,50.18185],[14.65679,50.18206],[14.65686,50.18213],[14.65695,50.18225],[14.65696,50.18227],[14.657,50.18235],[14.65703,50.18239],[14.65699,50.18241],[14.65699,50.18242],[14.65709,50.18257],[14.65719,50.18272],[14.65728,50.18269],[14.65736,50.18268],[14.65746,50.18279],[14.65749,50.1828],[14.65752,50.18281],[14.65754,50.18284],[14.65757,50.1829],[14.65756,50.18292],[14.65758,50.18295],[14.6576,50.18299],[14.65764,50.18301],[14.65766,50.18303],[14.65769,50.18308],[14.65779,50.1832],[14.65825,50.18379],[14.65834,50.18388],[14.65838,50.18393],[14.65866,50.18419],[14.65888,50.18441],[14.65906,50.18458],[14.65948,50.185],[14.65981,50.18529],[14.65983,50.18531],[14.65976,50.18535],[14.65979,50.18538],[14.65983,50.18542],[14.65988,50.18546],[14.66018,50.18575],[14.66029,50.1857],[14.6604,50.18565],[14.66066,50.18579],[14.66075,50.18583],[14.66076,50.18583],[14.66078,50.18589],[14.66079,50.18593],[14.66091,50.18592],[14.66128,50.18586],[14.66156,50.18588],[14.66185,50.18613],[14.66208,50.1864],[14.66215,50.18637],[14.6622,50.18636],[14.66234,50.1865],[14.66263,50.18676],[14.6627,50.18681],[14.66288,50.18691],[14.66291,50.18692],[14.66306,50.18693],[14.66345,50.18696],[14.66392,50.187],[14.66415,50.187],[14.6642,50.18699],[14.66437,50.18696],[14.66444,50.18694],[14.66456,50.1869],[14.66457,50.18691],[14.66482,50.18714],[14.66517,50.1875],[14.66532,50.18769],[14.66557,50.18778],[14.6657,50.18777],[14.66574,50.18776],[14.6662,50.18767],[14.66678,50.18756],[14.66684,50.18756],[14.667,50.18753],[14.66703,50.18758],[14.66688,50.1876],[14.66692,50.18765],[14.66688,50.1876],[14.66595,50.18777],[14.66577,50.18788],[14.66566,50.18796],[14.66564,50.18804],[14.66566,50.18808],[14.66567,50.18809],[14.66572,50.18814],[14.66648,50.18879],[14.66649,50.18881],[14.66651,50.18882],[14.66706,50.18929],[14.66709,50.18931],[14.66735,50.18955],[14.6676,50.18979],[14.66778,50.18986],[14.66787,50.18993],[14.66803,50.19018],[14.66818,50.19043],[14.66819,50.19046],[14.66841,50.1909],[14.66858,50.19121],[14.66868,50.19141],[14.6688,50.19164],[14.66895,50.19188],[14.66902,50.19196],[14.66926,50.19222],[14.6697,50.19257],[14.66985,50.19269],[14.67053,50.19319],[14.67131,50.19376],[14.67148,50.19388],[14.67142,50.19391],[14.67138,50.19393],[14.67168,50.19411],[14.67203,50.19427],[14.67202,50.19432],[14.67205,50.19437],[14.67237,50.19446],[14.67257,50.19452],[14.67262,50.19456],[14.67266,50.19459],[14.67272,50.19462],[14.67276,50.19465],[14.67282,50.19468],[14.67285,50.19469],[14.67282,50.19472],[14.67317,50.19488],[14.67322,50.19489],[14.67356,50.195],[14.6738,50.19508],[14.6738,50.19512],[14.67397,50.1952],[14.67444,50.19558],[14.67452,50.19567],[14.67457,50.19566],[14.67461,50.19565],[14.67474,50.1956],[14.67504,50.19574],[14.67524,50.19579],[14.67534,50.19581],[14.67538,50.19581],[14.67546,50.19583],[14.67551,50.19584],[14.67573,50.19593],[14.67594,50.19602],[14.67652,50.19636],[14.67652,50.19641],[14.67657,50.19644],[14.67664,50.19647],[14.67668,50.19647],[14.67672,50.19647],[14.67677,50.19644],[14.67683,50.19641],[14.67663,50.19629],[14.6762,50.19607],[14.67618,50.19606],[14.67621,50.19602],[14.67627,50.19595],[14.67631,50.19588],[14.67634,50.19585],[14.67635,50.19583],[14.67667,50.19592]]}}
