{"type":"Feature","properties":{"id":"kolo","name":"Cyklopouť","source":"OSRM (FOSSGIS) nad daty © OpenStreetMap"},"geometry":{"type":"LineString","coordinates":[[14.43701,50.09079],[14.43707,50.09078],[14.43715,50.09078],[14.43721,50.09079],[14.43727,50.09081],[14.43741,50.09085],[14.43744,50.09085],[14.43754,50.09078],[14.43756,50.09077],[14.43788,50.09086],[14.43789,50.09087],[14.43807,50.09092],[14.43812,50.09093],[14.43815,50.09094],[14.43831,50.09098],[14.43853,50.09105],[14.43865,50.09108],[14.43908,50.0912],[14.43993,50.09144],[14.44006,50.09148],[14.44062,50.09163],[14.44092,50.09171],[14.44185,50.09192],[14.44196,50.09195],[14.44221,50.09201],[14.44234,50.09204],[14.44436,50.09248],[14.4445,50.09251],[14.44468,50.09255],[14.4456,50.09275],[14.44615,50.09287],[14.44616,50.09288],[14.44621,50.09289],[14.44641,50.09293],[14.44659,50.09298],[14.44665,50.09299],[14.44798,50.09328],[14.44811,50.09331],[14.44951,50.09362],[14.45069,50.09388],[14.4511,50.09397],[14.45126,50.09401],[14.45144,50.09405],[14.45158,50.09408],[14.45161,50.09409],[14.45197,50.09416],[14.45212,50.0942],[14.45335,50.09447],[14.45363,50.09453],[14.45459,50.09475],[14.45477,50.09479],[14.45483,50.09479],[14.45501,50.09479],[14.45516,50.09482],[14.45574,50.09495],[14.4558,50.095],[14.45584,50.09502],[14.45707,50.0953],[14.4572,50.09533],[14.45722,50.09532],[14.45726,50.09531],[14.45729,50.0953],[14.45732,50.09531],[14.4574,50.09532],[14.4582,50.09549],[14.4583,50.09551],[14.45828,50.09555],[14.45827,50.09558],[14.45825,50.09562],[14.45823,50.09566],[14.45829,50.09567],[14.45939,50.09594],[14.45961,50.09599],[14.45983,50.09606],[14.45993,50.09609],[14.45992,50.09611],[14.45977,50.09638],[14.45965,50.09658],[14.4596,50.09667],[14.46055,50.09689],[14.4611,50.09702],[14.46164,50.09714],[14.46168,50.09716],[14.4619,50.0972],[14.46195,50.0971],[14.46204,50.09691],[14.4621,50.09684],[14.46212,50.09682],[14.46215,50.09679],[14.46218,50.09677],[14.46221,50.09674],[14.46226,50.09676],[14.46238,50.0968],[14.46407,50.0974],[14.46404,50.09744],[14.46403,50.09745],[14.46435,50.09757],[14.46524,50.09789],[14.46535,50.09793],[14.46537,50.09792],[14.4654,50.09788],[14.46552,50.09793],[14.46555,50.09794],[14.46627,50.0982],[14.46677,50.09838],[14.4669,50.09843],[14.46725,50.09862],[14.46731,50.09864],[14.46746,50.0987],[14.46761,50.09876],[14.46833,50.09902],[14.46883,50.09921],[14.46888,50.09923],[14.46912,50.09931],[14.46932,50.09937],[14.46976,50.09951],[14.46996,50.09958],[14.47035,50.09975],[14.47081,50.09996],[14.47107,50.10007],[14.47121,50.10014],[14.47168,50.10034],[14.4718,50.10041],[14.47186,50.10044],[14.47192,50.10047],[14.47227,50.10068],[14.47259,50.10086],[14.47289,50.10106],[14.47315,50.10124],[14.47339,50.10137],[14.47344,50.1014],[14.47347,50.10141],[14.47349,50.10142],[14.47354,50.10145],[14.47362,50.10149],[14.47409,50.10166],[14.47482,50.10192],[14.47493,50.10197],[14.47507,50.10202],[14.47531,50.1021],[14.47705,50.10269],[14.47794,50.10299],[14.47799,50.10301],[14.47811,50.10305],[14.47887,50.1033],[14.47968,50.10358],[14.48006,50.1037],[14.48022,50.10375],[14.48052,50.10383],[14.48078,50.10391],[14.48095,50.10396],[14.48103,50.10399],[14.48106,50.104],[14.48147,50.10414],[14.48187,50.10428],[14.48189,50.10429],[14.48195,50.10431],[14.48225,50.10442],[14.48228,50.10443],[14.48234,50.10446],[14.48249,50.10452],[14.48256,50.10455],[14.4826,50.10457],[14.48263,50.10458],[14.48277,50.10463],[14.48281,50.10465],[14.48289,50.10468],[14.48303,50.10472],[14.48385,50.10501],[14.48388,50.10502],[14.4839,50.10503],[14.48405,50.10508],[14.48418,50.10513],[14.48517,50.10548],[14.48535,50.10554],[14.4855,50.10559],[14.48629,50.10588],[14.4864,50.10592],[14.48704,50.10614],[14.48729,50.10622],[14.48827,50.10656],[14.48837,50.10659],[14.48852,50.10665],[14.4888,50.10676],[14.48909,50.10687],[14.49015,50.10724],[14.4903,50.10729],[14.49171,50.10778],[14.49186,50.10783],[14.49293,50.10821],[14.49304,50.10824],[14.49326,50.10831],[14.49422,50.10863],[14.49489,50.10885],[14.49544,50.10906],[14.49582,50.10919],[14.49595,50.10923],[14.49606,50.10927],[14.49632,50.10936],[14.49634,50.10936],[14.49637,50.10937],[14.49654,50.10942],[14.49679,50.1095],[14.49769,50.1098],[14.49819,50.10998],[14.49843,50.11006],[14.49848,50.11007],[14.49868,50.11013],[14.49893,50.11019],[14.49923,50.11026],[14.49962,50.11035],[14.49989,50.11042],[14.50002,50.11045],[14.50025,50.11051],[14.50109,50.1107],[14.50107,50.11074],[14.50106,50.11076],[14.50104,50.11079],[14.50101,50.11085],[14.50096,50.11094],[14.5009,50.11103],[14.50083,50.11111],[14.50069,50.11135],[14.50071,50.11144],[14.50066,50.11166],[14.50063,50.11177],[14.50063,50.11178],[14.50062,50.11184],[14.50066,50.11197],[14.50074,50.11206],[14.50091,50.11213],[14.50187,50.11221],[14.502,50.11223],[14.50241,50.11224],[14.50251,50.11224],[14.50251,50.11249],[14.50251,50.11252],[14.50251,50.11267],[14.50267,50.11267],[14.50273,50.11267],[14.50286,50.11267],[14.50303,50.11267],[14.50326,50.11266],[14.5037,50.11266],[14.50377,50.11266],[14.50438,50.11268],[14.50447,50.11268],[14.50505,50.11269],[14.50543,50.11272],[14.50554,50.11274],[14.5057,50.11275],[14.50579,50.11276],[14.50603,50.11278],[14.50633,50.11282],[14.50663,50.11287],[14.50706,50.11297],[14.50717,50.113],[14.50741,50.11307],[14.50767,50.11314],[14.50778,50.11317],[14.50852,50.11339],[14.50872,50.11344],[14.50895,50.11349],[14.50893,50.11353],[14.50897,50.11356],[14.50943,50.11372],[14.50997,50.11391],[14.50998,50.11396],[14.50996,50.11399],[14.50993,50.11402],[14.50989,50.11405],[14.50967,50.11411],[14.50952,50.11414],[14.50933,50.11417],[14.50914,50.11419],[14.50906,50.11421],[14.50898,50.11424],[14.50911,50.11432],[14.50933,50.11451],[14.50962,50.11475],[14.50979,50.1149],[14.50988,50.11497],[14.50998,50.11505],[14.51021,50.11524],[14.51025,50.11527],[14.51034,50.11535],[14.51061,50.11559],[14.51086,50.11581],[14.51095,50.11593],[14.51097,50.11599],[14.51095,50.11607],[14.51099,50.11612],[14.51116,50.11634],[14.51123,50.11651],[14.51131,50.11675],[14.51132,50.11681],[14.51072,50.1169],[14.51047,50.11695],[14.50929,50.11716],[14.50836,50.11731],[14.5083,50.11731],[14.5083,50.11736],[14.5083,50.11738],[14.50827,50.11744],[14.50821,50.11749],[14.50818,50.11751],[14.5081,50.11754],[14.50813,50.11763],[14.50814,50.11766],[14.50842,50.11843],[14.50845,50.11848],[14.50856,50.11856],[14.50862,50.1186],[14.50868,50.11858],[14.50873,50.11858],[14.50879,50.11859],[14.50884,50.11861],[14.5089,50.11857],[14.50896,50.11853],[14.509,50.11856],[14.50912,50.11863],[14.50958,50.11862],[14.50976,50.11862],[14.5106,50.11861],[14.51181,50.1186],[14.5123,50.11859],[14.51297,50.11858],[14.51346,50.11857],[14.51469,50.11856],[14.51593,50.11855],[14.51592,50.1186],[14.51623,50.1186],[14.5167,50.11859],[14.51682,50.11859],[14.51693,50.11859],[14.51702,50.11859],[14.51716,50.1186],[14.51727,50.11861],[14.51737,50.11862],[14.51747,50.11864],[14.51751,50.11865],[14.51761,50.11866],[14.51767,50.11868],[14.51774,50.1187],[14.51782,50.11872],[14.51785,50.11873],[14.51798,50.11878],[14.51841,50.11894],[14.51992,50.11958],[14.52021,50.1197],[14.52008,50.11982],[14.52018,50.11987],[14.51797,50.12195],[14.51759,50.1223],[14.51779,50.12233],[14.51839,50.12265],[14.51886,50.12287],[14.51887,50.12288],[14.51981,50.12318],[14.52243,50.1239],[14.52381,50.12443],[14.52463,50.12476],[14.52456,50.12484],[14.52463,50.12476],[14.52474,50.12481],[14.52513,50.12499],[14.52551,50.12519],[14.5257,50.12531],[14.52587,50.12544],[14.52617,50.12575],[14.52628,50.12583],[14.52644,50.1259],[14.52665,50.12596],[14.52715,50.12608],[14.52755,50.12615],[14.52797,50.12621],[14.52828,50.12624],[14.52878,50.12626],[14.52923,50.12576],[14.52984,50.12508],[14.53079,50.12407],[14.53108,50.12418],[14.53112,50.12427],[14.53117,50.12429],[14.53123,50.12432],[14.53146,50.12441],[14.53159,50.12443],[14.53181,50.12452],[14.53189,50.12455],[14.53218,50.12467],[14.53226,50.12471],[14.53229,50.12475],[14.53261,50.12487],[14.53272,50.1249],[14.53282,50.12495],[14.53505,50.12584],[14.53569,50.12609],[14.53626,50.12631],[14.53634,50.12633],[14.5364,50.12635],[14.53646,50.12638],[14.53653,50.12642],[14.53854,50.12722],[14.54061,50.12805],[14.54067,50.12807],[14.54078,50.12808],[14.54088,50.12808],[14.54093,50.12809],[14.54096,50.1281],[14.54101,50.12812],[14.54104,50.12815],[14.54111,50.12824],[14.54114,50.12827],[14.54142,50.12837],[14.54149,50.12838],[14.54146,50.12841],[14.54121,50.12867],[14.54096,50.12895],[14.54037,50.12948],[14.53977,50.13],[14.53973,50.13004],[14.53971,50.13007],[14.5397,50.13012],[14.53944,50.13036],[14.53929,50.13047],[14.53944,50.13036],[14.5397,50.13012],[14.53971,50.13007],[14.53973,50.13004],[14.53977,50.13],[14.54037,50.12948],[14.54096,50.12895],[14.54121,50.12867],[14.54146,50.12841],[14.54149,50.12838],[14.54153,50.1284],[14.54166,50.12845],[14.54181,50.12851],[14.54185,50.12853],[14.54193,50.12855],[14.54195,50.12856],[14.54199,50.12857],[14.54209,50.12847],[14.54214,50.12842],[14.54218,50.12844],[14.54219,50.12852],[14.54363,50.12911],[14.54404,50.12929],[14.54427,50.12938],[14.54439,50.12943],[14.54601,50.13006],[14.5464,50.1302],[14.54658,50.13025],[14.54664,50.13026],[14.54676,50.13029],[14.54691,50.1303],[14.54693,50.1304],[14.54696,50.13043],[14.54706,50.13059],[14.54777,50.13152],[14.54788,50.13169],[14.54806,50.132],[14.54811,50.1321],[14.54822,50.13235],[14.54829,50.13256],[14.54835,50.13278],[14.54844,50.13311],[14.5485,50.13331],[14.54848,50.13351],[14.54875,50.13356],[14.54888,50.13359],[14.54921,50.13366],[14.5493,50.13368],[14.54942,50.1337],[14.54966,50.13369],[14.55097,50.13366],[14.55107,50.13366],[14.55128,50.13366],[14.55128,50.13357],[14.55129,50.13355],[14.55131,50.13352],[14.55135,50.13349],[14.55139,50.13348],[14.55145,50.13347],[14.55149,50.13348],[14.55155,50.13349],[14.5516,50.1335],[14.55165,50.13351],[14.5517,50.13351],[14.55176,50.13351],[14.55183,50.1335],[14.55189,50.1335],[14.55195,50.13349],[14.55204,50.13347],[14.55211,50.13345],[14.55217,50.13344],[14.55224,50.13344],[14.55231,50.13343],[14.55239,50.13343],[14.55269,50.13341],[14.55326,50.13339],[14.55415,50.13336],[14.5548,50.13339],[14.55484,50.13353],[14.5548,50.13339],[14.55492,50.13339],[14.55502,50.13337],[14.55535,50.13332],[14.55555,50.13328],[14.55563,50.13325],[14.55584,50.13324],[14.55626,50.13325],[14.55688,50.13323],[14.5574,50.13322],[14.55785,50.13319],[14.55791,50.13319],[14.55922,50.1331],[14.55946,50.13311],[14.56016,50.13306],[14.56053,50.13303],[14.56086,50.13301],[14.56093,50.13302],[14.5612,50.13313],[14.56125,50.13315],[14.5613,50.13317],[14.56157,50.13333],[14.56342,50.13424],[14.5668,50.13589],[14.56724,50.13611],[14.5682,50.13658],[14.56833,50.13647],[14.57329,50.13889],[14.57514,50.13979],[14.57571,50.14007],[14.57628,50.14035],[14.57637,50.14039],[14.57674,50.14057],[14.57741,50.1409],[14.57749,50.14096],[14.57755,50.141],[14.57761,50.14107],[14.57766,50.14119],[14.57772,50.14146],[14.57773,50.14154],[14.57776,50.14167],[14.57782,50.14199],[14.57787,50.1421],[14.57794,50.1422],[14.57889,50.14326],[14.57898,50.14338],[14.57906,50.14347],[14.57945,50.14388],[14.57953,50.14396],[14.57967,50.14411],[14.57971,50.1441],[14.57975,50.1441],[14.57979,50.14412],[14.57981,50.14414],[14.57983,50.14416],[14.57983,50.14419],[14.57981,50.14421],[14.57979,50.14423],[14.57975,50.14424],[14.57972,50.14425],[14.57968,50.14424],[14.57965,50.14423],[14.57962,50.14421],[14.57954,50.14426],[14.57958,50.1443],[14.57963,50.14429],[14.57968,50.14429],[14.57973,50.14431],[14.57988,50.14445],[14.5802,50.14475],[14.58024,50.14478],[14.58027,50.1448],[14.5804,50.14489],[14.5807,50.14515],[14.5808,50.14508],[14.58096,50.14518],[14.58178,50.14572],[14.58182,50.14575],[14.58187,50.14578],[14.58214,50.14596],[14.58412,50.14725],[14.58435,50.1474],[14.58446,50.14748],[14.58668,50.14892],[14.58681,50.14901],[14.58718,50.14924],[14.58741,50.14939],[14.58791,50.14973],[14.58796,50.14977],[14.58837,50.15002],[14.58862,50.15018],[14.589,50.15043],[14.58943,50.1507],[14.58986,50.15098],[14.59039,50.15133],[14.59116,50.15183],[14.5913,50.15192],[14.59145,50.15202],[14.59149,50.15204],[14.5916,50.15212],[14.59236,50.15261],[14.59269,50.15282],[14.59336,50.15326],[14.59372,50.15349],[14.59387,50.15359],[14.59418,50.1538],[14.5942,50.1538],[14.59436,50.15391],[14.59493,50.15429],[14.59682,50.15552],[14.59693,50.15545],[14.59697,50.15547],[14.59696,50.15549],[14.59696,50.15551],[14.59696,50.15554],[14.59698,50.15557],[14.59709,50.15564],[14.59705,50.15567],[14.59821,50.15645],[14.59867,50.15676],[14.59903,50.15698],[14.59908,50.15701],[14.59959,50.15728],[14.60098,50.15794],[14.60134,50.15802],[14.60161,50.15804],[14.60237,50.15801],[14.60256,50.158],[14.60341,50.15796],[14.6038,50.15794],[14.60591,50.15784],[14.60634,50.15783],[14.60684,50.15787],[14.60737,50.15796],[14.60786,50.1581],[14.60898,50.15853],[14.61007,50.15898],[14.61112,50.15944],[14.61253,50.16004],[14.61334,50.1604],[14.62446,50.16523],[14.62476,50.16537],[14.62529,50.16561],[14.62594,50.16582],[14.62734,50.16626],[14.62747,50.1663],[14.62767,50.16636],[14.62848,50.16666],[14.62872,50.16677],[14.62924,50.16702],[14.62942,50.16711],[14.62989,50.16736],[14.62981,50.16743],[14.62983,50.16752],[14.62988,50.16767],[14.63006,50.1682],[14.63005,50.1683],[14.6303,50.16838],[14.63117,50.16861],[14.63125,50.16863],[14.63137,50.16864],[14.63146,50.16864],[14.63182,50.16913],[14.63199,50.16934],[14.63214,50.16949],[14.63231,50.16961],[14.63248,50.16971],[14.63275,50.16983],[14.6331,50.16996],[14.63361,50.17013],[14.63425,50.17032],[14.63818,50.17138],[14.6399,50.17184],[14.64319,50.17278],[14.64363,50.17289],[14.64491,50.17319],[14.64551,50.17333],[14.6461,50.1735],[14.6468,50.17373],[14.64734,50.17392],[14.64779,50.17407],[14.64826,50.17423],[14.64862,50.17435],[14.64879,50.17442],[14.64935,50.17464],[14.64952,50.17473],[14.64972,50.17482],[14.65002,50.17501],[14.65045,50.17534],[14.65058,50.17544],[14.65075,50.17557],[14.65087,50.17568],[14.65131,50.17602],[14.65264,50.17705],[14.65277,50.17716],[14.65282,50.1772],[14.65293,50.17731],[14.65297,50.17734],[14.65306,50.17743],[14.6531,50.17742],[14.65314,50.17741],[14.65319,50.17742],[14.65323,50.17742],[14.65326,50.17744],[14.65329,50.17746],[14.65332,50.17748],[14.65334,50.1775],[14.65334,50.17753],[14.65334,50.17756],[14.65333,50.17759],[14.6533,50.17762],[14.65334,50.17763],[14.65338,50.17765],[14.65342,50.17768],[14.65357,50.1778],[14.65364,50.17786],[14.65365,50.17786],[14.6538,50.17799],[14.65387,50.17805],[14.65401,50.17817],[14.65403,50.17819],[14.65404,50.17819],[14.65431,50.17843],[14.6545,50.17858],[14.65456,50.17864],[14.65462,50.17869],[14.65455,50.17872],[14.65451,50.17874],[14.65448,50.17877],[14.65446,50.17881],[14.65471,50.17901],[14.65521,50.17941],[14.65524,50.17943],[14.65526,50.17943],[14.65528,50.17943],[14.6553,50.17944],[14.65532,50.17946],[14.65536,50.17951],[14.65546,50.1795],[14.6556,50.17969],[14.65573,50.17988],[14.6558,50.18002],[14.6559,50.18021],[14.65595,50.1803],[14.65598,50.18036],[14.65609,50.18055],[14.65616,50.1807],[14.65621,50.18077],[14.65627,50.18089],[14.65628,50.18092],[14.65634,50.18102],[14.65646,50.18124],[14.65654,50.18139],[14.65662,50.18154],[14.65683,50.18193],[14.65694,50.18212],[14.65704,50.18232],[14.65714,50.18246],[14.65718,50.18254],[14.65723,50.18261],[14.65728,50.18269],[14.65719,50.18272],[14.65709,50.18257],[14.65699,50.18242],[14.65699,50.18241],[14.65703,50.18239],[14.657,50.18235],[14.65696,50.18227],[14.65695,50.18225],[14.65696,50.18227],[14.657,50.18235],[14.65703,50.18239],[14.65699,50.18241],[14.65699,50.18242],[14.65709,50.18257],[14.65719,50.18272],[14.65721,50.18276],[14.65718,50.1828],[14.65722,50.18285],[14.6574,50.18285],[14.65748,50.18296],[14.65755,50.18305],[14.6576,50.18311],[14.65769,50.18322],[14.65796,50.18359],[14.65814,50.18382],[14.65825,50.18392],[14.65876,50.18442],[14.65898,50.18462],[14.6594,50.18502],[14.65976,50.18535],[14.65979,50.18538],[14.65983,50.18542],[14.66018,50.18575],[14.66032,50.18588],[14.66041,50.18588],[14.66058,50.18588],[14.66078,50.18589],[14.66115,50.18585],[14.66132,50.18583],[14.66157,50.18581],[14.66168,50.18589],[14.66189,50.1861],[14.66215,50.18637],[14.66228,50.18651],[14.66265,50.18686],[14.66284,50.18695],[14.66302,50.18698],[14.66338,50.187],[14.66407,50.18704],[14.66425,50.18706],[14.66448,50.1871],[14.66463,50.18714],[14.66475,50.1872],[14.66493,50.18733],[14.6651,50.18754],[14.6653,50.18777],[14.66537,50.18786],[14.66546,50.18798],[14.66559,50.18811],[14.66566,50.18817],[14.66619,50.18863],[14.6672,50.18951],[14.6673,50.18959],[14.66767,50.18993],[14.66787,50.19011],[14.66792,50.19016],[14.66796,50.19021],[14.66797,50.19022],[14.66799,50.19026],[14.66803,50.19032],[14.66806,50.19037],[14.6681,50.19045],[14.66812,50.19048],[14.66835,50.19092],[14.66849,50.19123],[14.66854,50.19134],[14.66859,50.19144],[14.6687,50.19165],[14.6688,50.19179],[14.66894,50.19198],[14.66915,50.19221],[14.66937,50.1924],[14.66941,50.19244],[14.66963,50.1926],[14.66985,50.19277],[14.67048,50.19323],[14.67059,50.19331],[14.67086,50.19351],[14.67124,50.19378],[14.67142,50.19391],[14.67138,50.19393],[14.67168,50.19411],[14.67203,50.19427],[14.67202,50.19432],[14.67205,50.19437],[14.67237,50.19446]]}}
