{"type":"Feature","properties":{"id":"polni","name":"Z Vinoře polní cestou mimo silnici","source":"OSRM (FOSSGIS) nad daty © OpenStreetMap"},"geometry":{"type":"LineString","coordinates":[[14.5765,50.14157],[14.57649,50.14157],[14.57665,50.14157],[14.57714,50.14152],[14.57754,50.14148],[14.57761,50.14147],[14.57772,50.14146],[14.57773,50.14154],[14.57776,50.14167],[14.57782,50.14199],[14.57787,50.1421],[14.57794,50.1422],[14.57889,50.14326],[14.57898,50.14338],[14.57906,50.14347],[14.57945,50.14388],[14.57953,50.14396],[14.57967,50.14411],[14.57964,50.14412],[14.57962,50.14414],[14.57961,50.14417],[14.57961,50.14419],[14.57962,50.14421],[14.57954,50.14426],[14.57958,50.1443],[14.57963,50.14429],[14.57968,50.14429],[14.57973,50.14431],[14.57988,50.14445],[14.5802,50.14475],[14.58024,50.14478],[14.58027,50.1448],[14.5804,50.14489],[14.5807,50.14515],[14.58085,50.14525],[14.58173,50.14581],[14.58207,50.14602],[14.5827,50.14643],[14.5835,50.14695],[14.58405,50.14731],[14.58427,50.14746],[14.58435,50.1474],[14.5844,50.14737],[14.58443,50.14739],[14.58447,50.14739],[14.58451,50.14739],[14.58452,50.14739],[14.58456,50.14741],[14.58513,50.14707],[14.58456,50.14741],[14.58482,50.14758],[14.58534,50.14792],[14.58585,50.14826],[14.58616,50.14847],[14.58638,50.14861],[14.58672,50.14883],[14.5869,50.14896],[14.58752,50.14935],[14.58847,50.14998],[14.58909,50.15038],[14.58969,50.15078],[14.58994,50.15094],[14.59097,50.15043],[14.59178,50.15003],[14.59183,50.15001],[14.59193,50.14995],[14.59246,50.15037],[14.59307,50.15084],[14.59348,50.15118],[14.59364,50.15129],[14.59383,50.15142],[14.59407,50.1516],[14.5943,50.15177],[14.59407,50.1516],[14.59383,50.15142],[14.59364,50.15129],[14.59348,50.15118],[14.59307,50.15084],[14.59246,50.15037],[14.59193,50.14995],[14.59183,50.15001],[14.59178,50.15003],[14.59097,50.15043],[14.58994,50.15094],[14.59138,50.15187],[14.59153,50.15197],[14.59145,50.15202],[14.59149,50.15204],[14.5916,50.15212],[14.59236,50.15261],[14.59269,50.15282],[14.59336,50.15326],[14.59372,50.15349],[14.59387,50.15359],[14.59418,50.1538],[14.5942,50.1538],[14.59436,50.15391],[14.5946,50.15387],[14.59463,50.15393],[14.59686,50.15541],[14.59693,50.15545],[14.59697,50.15547],[14.59696,50.15549],[14.59696,50.15551],[14.59696,50.15554],[14.59698,50.15557],[14.59709,50.15564],[14.59705,50.15567],[14.597,50.1557],[14.59697,50.15572],[14.5985,50.15675],[14.59862,50.15687],[14.59861,50.15691],[14.59861,50.15694],[14.59862,50.15697],[14.59866,50.157],[14.59871,50.15701],[14.59875,50.15701],[14.5989,50.15698],[14.59903,50.15698],[14.59908,50.15701],[14.59959,50.15728],[14.59955,50.15736],[14.60106,50.15819],[14.60136,50.15838],[14.60143,50.15844],[14.60168,50.15875],[14.60179,50.15896],[14.60183,50.159],[14.60187,50.15903],[14.60217,50.15917],[14.60215,50.15938],[14.60213,50.15948],[14.60211,50.15953],[14.60209,50.15961],[14.60207,50.15968],[14.60193,50.16068],[14.60193,50.16086],[14.60196,50.16096],[14.60201,50.16103],[14.60202,50.16103],[14.60213,50.16108],[14.60224,50.16109],[14.60259,50.16105],[14.60272,50.16105],[14.60281,50.16108],[14.60289,50.16113],[14.60294,50.16121],[14.60319,50.16147],[14.60325,50.16152],[14.60327,50.16153],[14.60389,50.16185],[14.60466,50.16225],[14.60553,50.1627],[14.60605,50.163],[14.60625,50.16315],[14.60667,50.16348],[14.60717,50.16387],[14.60772,50.16429],[14.60794,50.16447],[14.608,50.16452],[14.60803,50.16457],[14.60802,50.16463],[14.60798,50.16471],[14.60774,50.16524],[14.60769,50.16531],[14.60747,50.16564],[14.60695,50.16556],[14.60652,50.16546],[14.60695,50.16556],[14.60747,50.16564],[14.60718,50.16604],[14.60708,50.16622],[14.60701,50.16633],[14.60629,50.16733],[14.60568,50.16813],[14.60554,50.16824],[14.60539,50.1683],[14.60521,50.16833],[14.60452,50.16837],[14.60391,50.16844],[14.6037,50.16849],[14.60352,50.16855],[14.60334,50.16862],[14.60316,50.1687],[14.60301,50.16878],[14.60284,50.16889],[14.60247,50.16916],[14.60223,50.16937],[14.60201,50.16957],[14.60178,50.1698],[14.60129,50.17039],[14.60125,50.17048],[14.60123,50.17051],[14.60125,50.17048],[14.60138,50.17055],[14.60274,50.17111],[14.60441,50.17187],[14.6049,50.17206],[14.60831,50.17308],[14.61043,50.17359],[14.61127,50.17381],[14.61321,50.17435],[14.61557,50.17508],[14.61617,50.17524],[14.6165,50.17536],[14.61744,50.17574],[14.61847,50.17622],[14.61924,50.17659],[14.61995,50.17698],[14.62114,50.17776],[14.62223,50.17835],[14.62234,50.17842],[14.62251,50.17853],[14.6229,50.17876],[14.62313,50.17888],[14.62358,50.17853],[14.62361,50.17847],[14.62358,50.17853],[14.62313,50.17888],[14.62335,50.179],[14.62365,50.1791],[14.62401,50.17897],[14.62499,50.17795],[14.62523,50.17762],[14.62673,50.17816],[14.62747,50.17832],[14.6281,50.17842],[14.6296,50.17857],[14.6301,50.17863],[14.63049,50.17871],[14.63155,50.17896],[14.63188,50.17902],[14.63239,50.17906],[14.63326,50.17908],[14.63397,50.17916],[14.63446,50.17927],[14.63539,50.17951],[14.63675,50.17997],[14.63748,50.18027],[14.63804,50.18055],[14.63932,50.18122],[14.64039,50.1818],[14.64085,50.18198],[14.64097,50.18196],[14.64109,50.18189],[14.64114,50.18186],[14.64122,50.18181],[14.64138,50.1817],[14.64146,50.18163],[14.64185,50.18092],[14.64197,50.18079],[14.64207,50.18069],[14.64279,50.18041],[14.64288,50.1804],[14.64442,50.18063],[14.64442,50.18067],[14.64605,50.18085],[14.6476,50.18101],[14.64766,50.18103],[14.64898,50.18116],[14.64905,50.18118],[14.64908,50.18118],[14.65006,50.18129],[14.65058,50.18134],[14.65122,50.18143],[14.6513,50.18144],[14.65245,50.18167],[14.65268,50.18172],[14.65278,50.18175],[14.65342,50.18192],[14.65415,50.18211],[14.65543,50.18245],[14.65648,50.18272],[14.65711,50.18289],[14.65727,50.18291],[14.65735,50.18293],[14.65739,50.18298],[14.65741,50.18301],[14.65739,50.18304],[14.65735,50.18305],[14.65739,50.18309],[14.65743,50.18315],[14.65752,50.18318],[14.6576,50.18324],[14.6576,50.18325],[14.65769,50.18322],[14.65779,50.1832],[14.65825,50.18379],[14.65834,50.18388],[14.65838,50.18393],[14.65866,50.18419],[14.65888,50.18441],[14.65906,50.18458],[14.65948,50.185],[14.65981,50.18529],[14.65983,50.18531],[14.65988,50.18534],[14.65995,50.18538],[14.6604,50.18565],[14.66066,50.18579],[14.66075,50.18583],[14.66076,50.18583],[14.66078,50.18589],[14.66079,50.18593],[14.66091,50.18592],[14.66128,50.18586],[14.66156,50.18588],[14.66185,50.18613],[14.66208,50.1864],[14.66215,50.18637],[14.6622,50.18636],[14.66234,50.1865],[14.66263,50.18676],[14.6627,50.18681],[14.66288,50.18691],[14.66291,50.18692],[14.66306,50.18693],[14.66345,50.18696],[14.66392,50.187],[14.66415,50.187],[14.6642,50.18699],[14.66437,50.18696],[14.66444,50.18694],[14.66456,50.1869],[14.66457,50.18691],[14.66482,50.18714],[14.66517,50.1875],[14.66532,50.18769],[14.66543,50.18785],[14.66553,50.18796],[14.66564,50.18804],[14.66566,50.18808],[14.66567,50.18809],[14.66572,50.18814],[14.66648,50.18879],[14.66649,50.18881],[14.66651,50.18882],[14.66706,50.18929],[14.66709,50.18931],[14.66735,50.18955],[14.6676,50.18979],[14.66778,50.18986],[14.66787,50.18993],[14.66803,50.19018],[14.66818,50.19043],[14.66819,50.19046],[14.66841,50.1909],[14.66858,50.19121],[14.66868,50.19141],[14.6688,50.19164],[14.66895,50.19188],[14.66902,50.19196],[14.66926,50.19222],[14.6697,50.19257],[14.66985,50.19269],[14.67053,50.19319],[14.67131,50.19376],[14.67148,50.19388],[14.67142,50.19391],[14.67138,50.19393],[14.67168,50.19411],[14.67203,50.19427],[14.67202,50.19432],[14.67205,50.19437],[14.67237,50.19446]]}}
