{"type":"Feature","properties":{"id":"prosek","name":"Svatováclavská cesta z Proseka","source":"OSRM (FOSSGIS) nad daty © OpenStreetMap"},"geometry":{"type":"LineString","coordinates":[[14.49434,50.11817],[14.49427,50.11818],[14.49425,50.11818],[14.49419,50.11819],[14.49424,50.11835],[14.49439,50.11845],[14.49455,50.11865],[14.49454,50.11867],[14.49476,50.11879],[14.49501,50.11892],[14.49509,50.11896],[14.49519,50.11902],[14.49598,50.11944],[14.49624,50.11958],[14.49651,50.11973],[14.49661,50.11979],[14.49685,50.11992],[14.49679,50.11996],[14.49673,50.12001],[14.4967,50.12004],[14.49662,50.12011],[14.49674,50.12017],[14.49685,50.12022],[14.4969,50.12025],[14.49691,50.12026],[14.49738,50.11991],[14.49748,50.11984],[14.49755,50.11982],[14.4976,50.11985],[14.49784,50.12002],[14.49788,50.12005],[14.49798,50.12014],[14.49839,50.12046],[14.49852,50.12058],[14.49867,50.12071],[14.49886,50.12088],[14.49893,50.12094],[14.49897,50.12098],[14.49901,50.12101],[14.49906,50.12105],[14.49943,50.12123],[14.49963,50.1212],[14.4999,50.12114],[14.49992,50.12112],[14.50002,50.12105],[14.50003,50.12104],[14.50014,50.1211],[14.50021,50.12114],[14.50026,50.12117],[14.5003,50.12117],[14.50044,50.12125],[14.50054,50.12131],[14.50074,50.12143],[14.50061,50.12152],[14.50065,50.12156],[14.50073,50.12165],[14.50079,50.12171],[14.5007,50.12176],[14.50062,50.12183],[14.50056,50.1219],[14.50051,50.12199],[14.50044,50.12217],[14.50044,50.12222],[14.50045,50.12228],[14.50046,50.1223],[14.5005,50.12237],[14.50059,50.12246],[14.50066,50.12243],[14.50073,50.1225],[14.50094,50.1227],[14.50134,50.12305],[14.50151,50.12318],[14.50171,50.12334],[14.50187,50.12346],[14.50201,50.12356],[14.50241,50.12383],[14.50249,50.12388],[14.50253,50.1239],[14.50333,50.12442],[14.50359,50.12459],[14.50378,50.12472],[14.50381,50.12472],[14.50384,50.12473],[14.50388,50.12472],[14.50393,50.12469],[14.50402,50.12474],[14.50411,50.12481],[14.50424,50.12474],[14.50442,50.12463],[14.5046,50.12452],[14.50483,50.12439],[14.50514,50.12461],[14.50529,50.12472],[14.50538,50.12478],[14.50546,50.12483],[14.5055,50.12485],[14.50571,50.12503],[14.50588,50.12506],[14.50576,50.12513],[14.50606,50.12534],[14.50566,50.12556],[14.50588,50.12585],[14.50584,50.12587],[14.50581,50.12593],[14.50571,50.12599],[14.50576,50.12604],[14.5061,50.12627],[14.50701,50.12688],[14.50706,50.12691],[14.50707,50.12694],[14.50706,50.12697],[14.50682,50.12711],[14.50677,50.12711],[14.50673,50.12709],[14.50672,50.12706],[14.50673,50.12703],[14.50695,50.1269],[14.50702,50.12687],[14.50712,50.12686],[14.50722,50.12688],[14.5076,50.12708],[14.50769,50.12713],[14.50885,50.1277],[14.5101,50.12834],[14.51045,50.12855],[14.51047,50.12856],[14.51051,50.12863],[14.51051,50.1287],[14.51051,50.12874],[14.51058,50.12878],[14.51062,50.12881],[14.51067,50.12885],[14.51071,50.12888],[14.51073,50.1289],[14.51086,50.12907],[14.51092,50.12911],[14.51118,50.12913],[14.51125,50.1292],[14.51144,50.12937],[14.5115,50.12943],[14.51163,50.12956],[14.51183,50.12977],[14.51207,50.13002],[14.51211,50.13007],[14.51217,50.13012],[14.51219,50.13013],[14.51236,50.13029],[14.51242,50.13034],[14.51246,50.13038],[14.5132,50.13106],[14.51328,50.13114],[14.51336,50.13125],[14.51341,50.13135],[14.51343,50.13142],[14.51344,50.13146],[14.51351,50.13241],[14.51345,50.13241],[14.51347,50.1326],[14.51348,50.13285],[14.51353,50.13285],[14.51353,50.13292],[14.51355,50.13293],[14.51356,50.13295],[14.51356,50.13299],[14.51367,50.13299],[14.51375,50.13299],[14.5138,50.1335],[14.51396,50.1343],[14.51407,50.13483],[14.51412,50.13499],[14.51414,50.13505],[14.51426,50.13504],[14.51414,50.13505],[14.51427,50.13559],[14.51444,50.13618],[14.51449,50.13636],[14.51451,50.13639],[14.51456,50.1365],[14.51469,50.13673],[14.51479,50.13677],[14.51489,50.1368],[14.51535,50.13683],[14.51563,50.13688],[14.51613,50.13701],[14.51638,50.13706],[14.51677,50.13703],[14.5168,50.1371],[14.51681,50.13715],[14.51782,50.13702],[14.51884,50.13689],[14.51983,50.13677],[14.5199,50.13674],[14.52076,50.13663],[14.52082,50.13664],[14.52123,50.13659],[14.52132,50.13654],[14.5221,50.13641],[14.52243,50.13637],[14.52293,50.13632],[14.52309,50.13632],[14.52333,50.13629],[14.52351,50.13628],[14.52359,50.13627],[14.52366,50.13627],[14.52374,50.13627],[14.52382,50.13633],[14.52388,50.13639],[14.52402,50.13652],[14.52413,50.1366],[14.52418,50.13663],[14.52573,50.1377],[14.52595,50.13785],[14.52685,50.13845],[14.52706,50.13859],[14.52711,50.13863],[14.52733,50.13878],[14.52779,50.1391],[14.52844,50.13955],[14.52895,50.13989],[14.52911,50.14002],[14.52932,50.14006],[14.53004,50.14024],[14.53014,50.14027],[14.53038,50.14029],[14.53082,50.14042],[14.53121,50.14056],[14.53155,50.14074],[14.53309,50.14155],[14.53318,50.14158],[14.53333,50.1416],[14.5335,50.14159],[14.53415,50.14162],[14.53468,50.14166],[14.53523,50.14173],[14.53568,50.14181],[14.53643,50.14202],[14.53632,50.14214],[14.53577,50.14271],[14.53526,50.14325],[14.53524,50.14328],[14.53524,50.14331],[14.53525,50.14335],[14.53539,50.14364],[14.53542,50.1437],[14.5355,50.1438],[14.53563,50.14392],[14.53585,50.14414],[14.53594,50.14425],[14.53605,50.14439],[14.53623,50.14462],[14.53631,50.14472],[14.53659,50.14512],[14.53675,50.14536],[14.53689,50.1456],[14.53692,50.14568],[14.53695,50.14576],[14.53699,50.14593],[14.5375,50.14627],[14.53785,50.14648],[14.53849,50.14679],[14.53911,50.14705],[14.5402,50.14744],[14.54057,50.14758],[14.5427,50.14838],[14.54384,50.14882],[14.54411,50.14893],[14.54417,50.14901],[14.54432,50.14908],[14.54474,50.14928],[14.54546,50.14968],[14.54619,50.15007],[14.54714,50.15048],[14.54819,50.15089],[14.54966,50.15141],[14.55103,50.15186],[14.55117,50.15191],[14.55233,50.1523],[14.55401,50.15291],[14.55483,50.15321],[14.55697,50.15414],[14.5582,50.15464],[14.55926,50.15505],[14.55988,50.15525],[14.56044,50.15542],[14.5623,50.15596],[14.56358,50.15636],[14.56494,50.15684],[14.56651,50.15739],[14.56738,50.15775],[14.56773,50.1579],[14.56857,50.15828],[14.56936,50.15869],[14.56973,50.15889],[14.57217,50.16034],[14.5725,50.16053],[14.57315,50.16089],[14.57336,50.16101],[14.57389,50.16132],[14.57405,50.16143],[14.57423,50.16155],[14.57507,50.16205],[14.5764,50.16288],[14.5765,50.16294],[14.57697,50.1632],[14.57794,50.16374],[14.57832,50.16394],[14.57868,50.1641],[14.57897,50.16429],[14.57917,50.16442],[14.58238,50.1662],[14.58282,50.16644],[14.58331,50.16669],[14.58419,50.16709],[14.58441,50.16716],[14.58463,50.16722],[14.58526,50.16736],[14.58612,50.16754],[14.5877,50.16783],[14.58818,50.16787],[14.58843,50.1679],[14.58897,50.16801],[14.58922,50.16805],[14.58953,50.16806],[14.58968,50.16806],[14.58319,50.17841],[14.58309,50.17857],[14.58203,50.17998],[14.5819,50.18015],[14.58243,50.1803],[14.58348,50.1806],[14.58448,50.18094],[14.58635,50.18148],[14.58849,50.18213],[14.58958,50.18252],[14.58966,50.18254],[14.58998,50.18271],[14.59025,50.18289],[14.59038,50.18301],[14.59047,50.18312],[14.59049,50.18324],[14.59051,50.18336],[14.59056,50.18343],[14.59062,50.1835],[14.59074,50.18359],[14.59077,50.18355],[14.59082,50.18352],[14.59134,50.1837],[14.59131,50.18376],[14.59145,50.18378],[14.59186,50.18381],[14.59247,50.18385],[14.59376,50.18397],[14.5949,50.18407],[14.59548,50.18412],[14.59738,50.1842],[14.59746,50.18421],[14.59808,50.18423],[14.59915,50.18435],[14.60015,50.1845],[14.6022,50.18485],[14.60227,50.18473],[14.60234,50.18465],[14.6035,50.18352],[14.60408,50.18302],[14.60466,50.18259],[14.60496,50.1824],[14.60527,50.18226],[14.60727,50.18181],[14.60786,50.18163],[14.60804,50.18156],[14.60846,50.18136],[14.60979,50.1805],[14.61001,50.18038],[14.61022,50.1803],[14.61083,50.18015],[14.61167,50.18],[14.61318,50.17979],[14.6141,50.17969],[14.61437,50.17967],[14.61512,50.17963],[14.61714,50.17961],[14.61769,50.17959],[14.61893,50.17952],[14.61989,50.17941],[14.62061,50.17929],[14.62093,50.17921],[14.62173,50.17891],[14.62251,50.17853],[14.6229,50.17876],[14.62313,50.17888],[14.62335,50.179],[14.62365,50.1791],[14.62401,50.17897],[14.62499,50.17795],[14.62518,50.17769],[14.62523,50.17762],[14.62673,50.17816],[14.62747,50.17832],[14.6281,50.17842],[14.6296,50.17857],[14.6301,50.17863],[14.63049,50.17871],[14.63155,50.17896],[14.63188,50.17902],[14.63239,50.17906],[14.63326,50.17908],[14.63397,50.17916],[14.63446,50.17927],[14.63539,50.17951],[14.63675,50.17997],[14.63748,50.18027],[14.63804,50.18055],[14.63932,50.18122],[14.64039,50.1818],[14.64085,50.18198],[14.64097,50.18196],[14.64109,50.18189],[14.64114,50.18186],[14.64122,50.18181],[14.64138,50.1817],[14.64146,50.18163],[14.64185,50.18092],[14.64197,50.18079],[14.64207,50.18069],[14.64279,50.18041],[14.64288,50.1804],[14.64442,50.18063],[14.64442,50.18067],[14.64605,50.18085],[14.6476,50.18101],[14.64766,50.18103],[14.64898,50.18116],[14.64905,50.18118],[14.64908,50.18118],[14.65006,50.18129],[14.65058,50.18134],[14.65122,50.18143],[14.6513,50.18144],[14.65245,50.18167],[14.65268,50.18172],[14.65278,50.18175],[14.65342,50.18192],[14.65415,50.18211],[14.65543,50.18245],[14.65648,50.18272],[14.65711,50.18289],[14.65727,50.18291],[14.65735,50.18293],[14.65739,50.18298],[14.65741,50.18301],[14.65739,50.18304],[14.65735,50.18305],[14.65739,50.18309],[14.65743,50.18315],[14.65752,50.18318],[14.6576,50.18324],[14.6576,50.18325],[14.65769,50.18322],[14.65779,50.1832],[14.65825,50.18379],[14.65834,50.18388],[14.65838,50.18393],[14.65866,50.18419],[14.65888,50.18441],[14.65906,50.18458],[14.65948,50.185],[14.65981,50.18529],[14.65983,50.18531],[14.65988,50.18534],[14.65995,50.18538],[14.6604,50.18565],[14.66066,50.18579],[14.66075,50.18583],[14.66076,50.18583],[14.66078,50.18589],[14.66079,50.18593],[14.66091,50.18592],[14.66128,50.18586],[14.66156,50.18588],[14.66185,50.18613],[14.66208,50.1864],[14.66215,50.18637],[14.6622,50.18636],[14.66234,50.1865],[14.66263,50.18676],[14.6627,50.18681],[14.66288,50.18691],[14.66291,50.18692],[14.66306,50.18693],[14.66345,50.18696],[14.66392,50.187],[14.66415,50.187],[14.6642,50.18699],[14.66437,50.18696],[14.66444,50.18694],[14.66456,50.1869],[14.66457,50.18691],[14.66482,50.18714],[14.66517,50.1875],[14.66532,50.18769],[14.66543,50.18785],[14.66553,50.18796],[14.66564,50.18804],[14.66566,50.18808],[14.66567,50.18809],[14.66572,50.18814],[14.66648,50.18879],[14.66649,50.18881],[14.66651,50.18882],[14.66706,50.18929],[14.66709,50.18931],[14.66735,50.18955],[14.6676,50.18979],[14.66778,50.18986],[14.66787,50.18993],[14.66803,50.19018],[14.66818,50.19043],[14.66819,50.19046],[14.66841,50.1909],[14.66858,50.19121],[14.66868,50.19141],[14.6688,50.19164],[14.66895,50.19188],[14.66902,50.19196],[14.66926,50.19222],[14.6697,50.19257],[14.66985,50.19269],[14.67053,50.19319],[14.67131,50.19376],[14.67148,50.19388],[14.67142,50.19391],[14.67138,50.19393],[14.67168,50.19411],[14.67203,50.19427],[14.67202,50.19432],[14.67205,50.19437],[14.67237,50.19446]]}}
