{"type":"Feature","properties":{"id":"vinor","name":"Kaple v polích (rodinná)","source":"OSRM (FOSSGIS) nad daty © OpenStreetMap"},"geometry":{"type":"LineString","coordinates":[[14.5765,50.14157],[14.57649,50.14157],[14.57665,50.14157],[14.57714,50.14152],[14.57754,50.14148],[14.57761,50.14147],[14.57772,50.14146],[14.57773,50.14154],[14.57776,50.14167],[14.57782,50.14199],[14.57787,50.1421],[14.57794,50.1422],[14.57889,50.14326],[14.57898,50.14338],[14.57906,50.14347],[14.57945,50.14388],[14.57953,50.14396],[14.57967,50.14411],[14.57964,50.14412],[14.57962,50.14414],[14.57961,50.14417],[14.57961,50.14419],[14.57962,50.14421],[14.57954,50.14426],[14.57958,50.1443],[14.57963,50.14429],[14.57968,50.14429],[14.57973,50.14431],[14.57988,50.14445],[14.5802,50.14475],[14.58024,50.14478],[14.58027,50.1448],[14.5804,50.14489],[14.5807,50.14515],[14.58085,50.14525],[14.58173,50.14581],[14.58207,50.14602],[14.5827,50.14643],[14.5835,50.14695],[14.58405,50.14731],[14.58427,50.14746],[14.58435,50.1474],[14.5844,50.14737],[14.58443,50.14739],[14.58447,50.14739],[14.58451,50.14739],[14.58452,50.14739],[14.58456,50.14741],[14.58513,50.14707],[14.58456,50.14741],[14.58482,50.14758],[14.58534,50.14792],[14.58585,50.14826],[14.58616,50.14847],[14.58638,50.14861],[14.58672,50.14883],[14.5869,50.14896],[14.58752,50.14935],[14.58847,50.14998],[14.58909,50.15038],[14.58969,50.15078],[14.58994,50.15094],[14.59097,50.15043],[14.59178,50.15003],[14.59183,50.15001],[14.59193,50.14995],[14.59246,50.15037],[14.59307,50.15084],[14.59348,50.15118],[14.59364,50.15129],[14.59383,50.15142],[14.59407,50.1516],[14.5943,50.15177],[14.59407,50.1516],[14.59383,50.15142],[14.59364,50.15129],[14.59348,50.15118],[14.59307,50.15084],[14.59246,50.15037],[14.59193,50.14995],[14.59183,50.15001],[14.59178,50.15003],[14.59097,50.15043],[14.58994,50.15094],[14.59138,50.15187],[14.59153,50.15197],[14.59145,50.15202],[14.59149,50.15204],[14.5916,50.15212],[14.59236,50.15261],[14.59269,50.15282],[14.59336,50.15326],[14.59372,50.15349],[14.59387,50.15359],[14.59418,50.1538],[14.5942,50.1538],[14.59436,50.15391],[14.5946,50.15387],[14.59463,50.15393],[14.59686,50.15541],[14.59693,50.15545],[14.59697,50.15547],[14.59696,50.15549],[14.59696,50.15551],[14.59696,50.15554],[14.59698,50.15557],[14.59709,50.15564],[14.59705,50.15567],[14.597,50.1557],[14.59697,50.15572],[14.5985,50.15675],[14.59862,50.15687],[14.59861,50.15691],[14.59861,50.15694],[14.59862,50.15697],[14.59866,50.157],[14.59871,50.15701],[14.59875,50.15701],[14.5989,50.15698],[14.59903,50.15698],[14.59908,50.15701],[14.59959,50.15728],[14.60098,50.15794],[14.60134,50.15802],[14.60161,50.15804],[14.60237,50.15801],[14.60256,50.158],[14.60341,50.15796],[14.6038,50.15794],[14.60491,50.15789],[14.60591,50.15784],[14.60634,50.15783],[14.60684,50.15787],[14.60737,50.15796],[14.60786,50.1581],[14.60808,50.15818],[14.60898,50.15853],[14.61007,50.15898],[14.61112,50.15944],[14.61253,50.16004],[14.61334,50.1604],[14.62446,50.16523],[14.62438,50.16529],[14.62434,50.16533],[14.6244,50.16536],[14.62499,50.16559],[14.62588,50.16588],[14.62728,50.16635],[14.6274,50.16639],[14.62817,50.16663],[14.62838,50.16672],[14.62841,50.16674],[14.62898,50.167],[14.62916,50.16709],[14.62935,50.16719],[14.62981,50.16743],[14.62983,50.16752],[14.62988,50.16767],[14.63006,50.1682],[14.6302,50.1683],[14.63031,50.16834],[14.63093,50.16851],[14.63101,50.16851],[14.63119,50.16855],[14.6312,50.16857],[14.63117,50.16861],[14.63125,50.16863],[14.63137,50.16864],[14.63146,50.16864],[14.63182,50.16913],[14.63199,50.16934],[14.63214,50.16949],[14.63231,50.16961],[14.63248,50.16971],[14.63275,50.16983],[14.6331,50.16996],[14.63361,50.17013],[14.63425,50.17032],[14.63818,50.17138],[14.63975,50.1718],[14.6399,50.17184],[14.64319,50.17278],[14.64363,50.17289],[14.64491,50.17319],[14.64551,50.17333],[14.6461,50.1735],[14.6468,50.17373],[14.64672,50.17384],[14.64679,50.17387],[14.6471,50.17397],[14.64743,50.17408],[14.64747,50.17404],[14.64787,50.17417],[14.64804,50.17422],[14.64832,50.17433],[14.64848,50.17439],[14.64856,50.17442],[14.64912,50.17462],[14.64936,50.17471],[14.64958,50.17482],[14.64971,50.17489],[14.64982,50.17496],[14.64995,50.17506],[14.65,50.17509],[14.65006,50.17516],[14.65009,50.17517],[14.65011,50.17518],[14.65062,50.17558],[14.65067,50.17561],[14.65071,50.17564],[14.65079,50.17571],[14.6509,50.1758],[14.65102,50.1759],[14.65117,50.17602],[14.65124,50.17608],[14.65131,50.17612],[14.65164,50.17639],[14.6519,50.17659],[14.65224,50.17686],[14.65255,50.1771],[14.65269,50.17721],[14.65283,50.17732],[14.65286,50.17735],[14.6529,50.17738],[14.65291,50.17739],[14.65292,50.17742],[14.65292,50.17744],[14.65291,50.17748],[14.6529,50.17751],[14.6529,50.17754],[14.6529,50.17756],[14.65291,50.17759],[14.65291,50.17761],[14.65291,50.17764],[14.65289,50.17768],[14.65295,50.17771],[14.653,50.17773],[14.65305,50.17771],[14.6531,50.1777],[14.65317,50.1777],[14.65326,50.1777],[14.65331,50.1777],[14.65336,50.17771],[14.65345,50.17778],[14.65357,50.17787],[14.65359,50.17789],[14.65354,50.17799],[14.65354,50.178],[14.65354,50.17802],[14.65354,50.17803],[14.65356,50.17805],[14.65365,50.17813],[14.65378,50.17823],[14.65403,50.17843],[14.65405,50.17845],[14.65442,50.17877],[14.65446,50.17881],[14.65471,50.17901],[14.65521,50.17941],[14.65524,50.17943],[14.65526,50.17943],[14.65528,50.17943],[14.6553,50.17944],[14.65532,50.17946],[14.65536,50.17951],[14.6554,50.17956],[14.65541,50.17958],[14.65543,50.17961],[14.65555,50.17977],[14.65565,50.17994],[14.65583,50.18027],[14.65584,50.18028],[14.65584,50.1803],[14.65583,50.18032],[14.65583,50.18033],[14.65586,50.18038],[14.6562,50.18096],[14.65624,50.18104],[14.65635,50.18121],[14.65641,50.18125],[14.65649,50.1814],[14.65648,50.18146],[14.65668,50.18185],[14.65679,50.18206],[14.65686,50.18213],[14.65695,50.18225],[14.65696,50.18227],[14.657,50.18235],[14.65703,50.18239],[14.65699,50.18241],[14.65699,50.18242],[14.65709,50.18257],[14.65719,50.18272],[14.65728,50.18269],[14.65736,50.18268],[14.65746,50.18279],[14.65749,50.1828],[14.65752,50.18281],[14.65754,50.18284],[14.65757,50.1829],[14.65756,50.18292],[14.65758,50.18295],[14.6576,50.18299],[14.65764,50.18301],[14.65766,50.18303],[14.65769,50.18308],[14.65779,50.1832],[14.65825,50.18379],[14.65834,50.18388],[14.65838,50.18393],[14.65866,50.18419],[14.65888,50.18441],[14.65906,50.18458],[14.65948,50.185],[14.65981,50.18529],[14.65983,50.18531],[14.65976,50.18535],[14.65979,50.18538],[14.65983,50.18542],[14.65988,50.18546],[14.66018,50.18575],[14.66029,50.1857],[14.6604,50.18565],[14.66066,50.18579],[14.66075,50.18583],[14.66076,50.18583],[14.66078,50.18589],[14.66079,50.18593],[14.66091,50.18592],[14.66128,50.18586],[14.66156,50.18588],[14.66185,50.18613],[14.66208,50.1864],[14.66215,50.18637],[14.6622,50.18636],[14.66234,50.1865],[14.66263,50.18676],[14.6627,50.18681],[14.66288,50.18691],[14.66291,50.18692],[14.66306,50.18693],[14.66345,50.18696],[14.66392,50.187],[14.66415,50.187],[14.6642,50.18699],[14.66437,50.18696],[14.66444,50.18694],[14.66456,50.1869],[14.66457,50.18691],[14.66482,50.18714],[14.66517,50.1875],[14.66532,50.18769],[14.66557,50.18778],[14.6657,50.18777],[14.66574,50.18776],[14.6662,50.18767],[14.66678,50.18756],[14.66684,50.18756],[14.667,50.18753],[14.66703,50.18758],[14.66688,50.1876],[14.66692,50.18765],[14.66688,50.1876],[14.66595,50.18777],[14.66577,50.18788],[14.66566,50.18796],[14.66564,50.18804],[14.66566,50.18808],[14.66567,50.18809],[14.66572,50.18814],[14.66648,50.18879],[14.66649,50.18881],[14.66651,50.18882],[14.66706,50.18929],[14.66709,50.18931],[14.66735,50.18955],[14.6676,50.18979],[14.66778,50.18986],[14.66787,50.18993],[14.66803,50.19018],[14.66818,50.19043],[14.66819,50.19046],[14.66841,50.1909],[14.66858,50.19121],[14.66868,50.19141],[14.6688,50.19164],[14.66895,50.19188],[14.66902,50.19196],[14.66926,50.19222],[14.6697,50.19257],[14.66985,50.19269],[14.67053,50.19319],[14.67131,50.19376],[14.67148,50.19388],[14.67142,50.19391],[14.67138,50.19393],[14.67168,50.19411],[14.67203,50.19427],[14.67202,50.19432],[14.67205,50.19437],[14.67237,50.19446],[14.67257,50.19452],[14.67262,50.19456],[14.67266,50.19459],[14.67272,50.19462],[14.67276,50.19465],[14.67282,50.19468],[14.67285,50.19469],[14.67282,50.19472],[14.67317,50.19488],[14.67322,50.19489],[14.67356,50.195],[14.6738,50.19508],[14.6738,50.19512],[14.67397,50.1952],[14.67444,50.19558],[14.67452,50.19567],[14.67457,50.19566],[14.67461,50.19565],[14.67474,50.1956],[14.67504,50.19574],[14.67524,50.19579],[14.67534,50.19581],[14.67538,50.19581],[14.67546,50.19583],[14.67551,50.19584],[14.67573,50.19593],[14.67594,50.19602],[14.67652,50.19636],[14.67652,50.19641],[14.67657,50.19644],[14.67664,50.19647],[14.67668,50.19647],[14.67672,50.19647],[14.67677,50.19644],[14.67683,50.19641],[14.67663,50.19629],[14.6762,50.19607],[14.67618,50.19606],[14.67621,50.19602],[14.67627,50.19595],[14.67631,50.19588],[14.67634,50.19585],[14.67635,50.19583],[14.67667,50.19592]]}}
